[{"OBJECT_NAME":"STARLINK-37093","OBJECT_ID":"2026-050AD","EPOCH":"2026-03-24T04:00:01.999584","MEAN_MOTION":15.82337452,"ECCENTRICITY":9.658e-5,"INCLINATION":53.1606,"RA_OF_ASC_NODE":209.0864,"ARG_OF_PERICENTER":65.0949,"MEAN_ANOMALY":35.0581,"EPHEMERIS_TYPE":0,"CLASSIFICATION_TYPE":"U","NORAD_CAT_ID":68194,"ELEMENT_SET_NO":999,"REV_AT_EPOCH":276,"BSTAR":-0.008703309,"MEAN_MOTION_DOT":-0.01607676,"MEAN_MOTION_DDOT":0},{"OBJECT_NAME":"STARLINK-37058","OBJECT_ID":"2026-050AE","EPOCH":"2026-03-24T04:00:01.999584","MEAN_MOTION":15.83058395,"ECCENTRICITY":8.054e-5,"INCLINATION":53.1602,"RA_OF_ASC_NODE":209.0537,"ARG_OF_PERICENTER":74.9136,"MEAN_ANOMALY":41.0482,"EPHEMERIS_TYPE":0,"CLASSIFICATION_TYPE":"U","NORAD_CAT_ID":68195,"ELEMENT_SET_NO":999,"REV_AT_EPOCH":276,"BSTAR":-0.0083800926,"MEAN_MOTION_DOT":-0.01602607,"MEAN_MOTION_DDOT":0},{"OBJECT_NAME":"YAOGAN-50 02","OBJECT_ID":"2026-051A","EPOCH":"2026-03-23T03:42:07.837632","MEAN_MOTION":13.86715862,"ECCENTRICITY":0.0072646,"INCLINATION":142.0896,"RA_OF_ASC_NODE":272.3766,"ARG_OF_PERICENTER":159.3966,"MEAN_ANOMALY":200.9696,"EPHEMERIS_TYPE":0,"CLASSIFICATION_TYPE":"U","NORAD_CAT_ID":68196,"ELEMENT_SET_NO":999,"REV_AT_EPOCH":107,"BSTAR":6.0453e-5,"MEAN_MOTION_DOT":2.63e-6,"MEAN_MOTION_DDOT":0},{"OBJECT_NAME":"CZ-6A R/B","OBJECT_ID":"2026-051B","EPOCH":"2026-03-23T18:31:14.964672","MEAN_MOTION":14.56364371,"ECCENTRICITY":0.01860668,"INCLINATION":142.032,"RA_OF_ASC_NODE":278.9006,"ARG_OF_PERICENTER":151.7732,"MEAN_ANOMALY":209.3218,"EPHEMERIS_TYPE":0,"CLASSIFICATION_TYPE":"U","NORAD_CAT_ID":68197,"ELEMENT_SET_NO":999,"REV_AT_EPOCH":121,"BSTAR":0.00015477719,"MEAN_MOTION_DOT":1.182e-5,"MEAN_MOTION_DDOT":0},{"OBJECT_NAME":"2026-052A","OBJECT_ID":"2026-052A","EPOCH":"2026-03-24T07:16:32.160864","MEAN_MOTION":15.09907705,"ECCENTRICITY":0.00127476,"INCLINATION":97.5363,"RA_OF_ASC_NODE":159.4237,"ARG_OF_PERICENTER":235.3879,"MEAN_ANOMALY":124.6149,"EPHEMERIS_TYPE":0,"CLASSIFICATION_TYPE":"U","NORAD_CAT_ID":68198,"ELEMENT_SET_NO":999,"REV_AT_EPOCH":123,"BSTAR":0.00041983611,"MEAN_MOTION_DOT":6.754e-5,"MEAN_MOTION_DDOT":0},{"OBJECT_NAME":"YUXING-3 06","OBJECT_ID":"2026-052B","EPOCH":"2026-03-24T05:39:56.150784","MEAN_MOTION":15.10037985,"ECCENTRICITY":0.00118252,"INCLINATION":97.5367,"RA_OF_ASC_NODE":159.359,"ARG_OF_PERICENTER":236.7086,"MEAN_ANOMALY":123.3011,"EPHEMERIS_TYPE":0,"CLASSIFICATION_TYPE":"U","NORAD_CAT_ID":68199,"ELEMENT_SET_NO":999,"REV_AT_EPOCH":122,"BSTAR":0.00032138108,"MEAN_MOTION_DOT":5.172e-5,"MEAN_MOTION_DDOT":0},{"OBJECT_NAME":"2026-052C","OBJECT_ID":"2026-052C","EPOCH":"2026-03-24T07:14:19.377024","MEAN_MOTION":15.10168552,"ECCENTRICITY":0.00115575,"INCLINATION":97.536,"RA_OF_ASC_NODE":159.4256,"ARG_OF_PERICENTER":239.2112,"MEAN_ANOMALY":120.798,"EPHEMERIS_TYPE":0,"CLASSIFICATION_TYPE":"U","NORAD_CAT_ID":68200,"ELEMENT_SET_NO":999,"REV_AT_EPOCH":122,"BSTAR":0.00028612912,"MEAN_MOTION_DOT":4.613e-5,"MEAN_MOTION_DDOT":0},{"OBJECT_NAME":"2026-052D","OBJECT_ID":"2026-052D","EPOCH":"2026-03-23T04:11:15.595584","MEAN_MOTION":15.10349642,"ECCENTRICITY":0.00106232,"INCLINATION":97.5345,"RA_OF_ASC_NODE":158.313,"ARG_OF_PERICENTER":243.8917,"MEAN_ANOMALY":116.122,"EPHEMERIS_TYPE":0,"CLASSIFICATION_TYPE":"U","NORAD_CAT_ID":68201,"ELEMENT_SET_NO":999,"REV_AT_EPOCH":106,"BSTAR":0.00098769632,"MEAN_MOTION_DOT":0.00016184,"MEAN_MOTION_DDOT":0},{"OBJECT_NAME":"2026-052E","OBJECT_ID":"2026-052E","EPOCH":"2026-03-23T02:35:50.422272","MEAN_MOTION":15.10329913,"ECCENTRICITY":0.00105426,"INCLINATION":97.5365,"RA_OF_ASC_NODE":158.2509,"ARG_OF_PERICENTER":240.2924,"MEAN_ANOMALY":119.7257,"EPHEMERIS_TYPE":0,"CLASSIFICATION_TYPE":"U","NORAD_CAT_ID":68202,"ELEMENT_SET_NO":999,"REV_AT_EPOCH":105,"BSTAR":0.00044376548,"MEAN_MOTION_DOT":7.223e-5,"MEAN_MOTION_DDOT":0},{"OBJECT_NAME":"2026-052F","OBJECT_ID":"2026-052F","EPOCH":"2026-03-24T07:11:08.990304","MEAN_MOTION":15.10606323,"ECCENTRICITY":0.00098586,"INCLINATION":97.5362,"RA_OF_ASC_NODE":159.4308,"ARG_OF_PERICENTER":231.7843,"MEAN_ANOMALY":128.25,"EPHEMERIS_TYPE":0,"CLASSIFICATION_TYPE":"U","NORAD_CAT_ID":68203,"ELEMENT_SET_NO":999,"REV_AT_EPOCH":123,"BSTAR":0.00044759452,"MEAN_MOTION_DOT":7.341e-5,"MEAN_MOTION_DDOT":0},{"OBJECT_NAME":"2026-052G","OBJECT_ID":"2026-052G","EPOCH":"2026-03-24T07:10:46.116768","MEAN_MOTION":15.10653851,"ECCENTRICITY":0.0009463,"INCLINATION":97.5369,"RA_OF_ASC_NODE":159.4268,"ARG_OF_PERICENTER":234.8824,"MEAN_ANOMALY":125.152,"EPHEMERIS_TYPE":0,"CLASSIFICATION_TYPE":"U","NORAD_CAT_ID":68204,"ELEMENT_SET_NO":999,"REV_AT_EPOCH":123,"BSTAR":0.00045396545,"MEAN_MOTION_DOT":7.456e-5,"MEAN_MOTION_DDOT":0},{"OBJECT_NAME":"KZ-11 R/B","OBJECT_ID":"2026-052H","EPOCH":"2026-03-24T06:24:23.812992","MEAN_MOTION":14.66965354,"ECCENTRICITY":0.05475832,"INCLINATION":97.3413,"RA_OF_ASC_NODE":159.0463,"ARG_OF_PERICENTER":346.8031,"MEAN_ANOMALY":11.9317,"EPHEMERIS_TYPE":0,"CLASSIFICATION_TYPE":"U","NORAD_CAT_ID":68205,"ELEMENT_SET_NO":999,"REV_AT_EPOCH":119,"BSTAR":0.00045493112,"MEAN_MOTION_DOT":0.00030529,"MEAN_MOTION_DDOT":1.882657e-6},{"OBJECT_NAME":"2026-052J","OBJECT_ID":"2026-052J","EPOCH":"2026-03-24T06:22:35.080320","MEAN_MOTION":14.67477184,"ECCENTRICITY":0.05459366,"INCLINATION":97.3417,"RA_OF_ASC_NODE":159.0474,"ARG_OF_PERICENTER":346.8721,"MEAN_ANOMALY":11.8738,"EPHEMERIS_TYPE":0,"CLASSIFICATION_TYPE":"U","NORAD_CAT_ID":68206,"ELEMENT_SET_NO":999,"REV_AT_EPOCH":119,"BSTAR":0.00078749463,"MEAN_MOTION_DOT":0.000537,"MEAN_MOTION_DDOT":2.186328e-6},{"OBJECT_NAME":"TEN-KOH 2","OBJECT_ID":"2025-241B","EPOCH":"2026-03-24T02:59:54.368448","MEAN_MOTION":15.22653261,"ECCENTRICITY":0.00044366,"INCLINATION":51.6367,"RA_OF_ASC_NODE":4.2272,"ARG_OF_PERICENTER":206.4734,"MEAN_ANOMALY":153.6017,"EPHEMERIS_TYPE":0,"CLASSIFICATION_TYPE":"U","NORAD_CAT_ID":68261,"ELEMENT_SET_NO":999,"REV_AT_EPOCH":194,"BSTAR":0.00039972195,"MEAN_MOTION_DOT":9.112e-5,"MEAN_MOTION_DDOT":0},{"OBJECT_NAME":"PROGRESS-MS 33","OBJECT_ID":"2026-058A","EPOCH":"2026-03-23T01:13:34.369536","MEAN_MOTION":16.01170532,"ECCENTRICITY":0.00116217,"INCLINATION":51.6358,"RA_OF_ASC_NODE":6.8873,"ARG_OF_PERICENTER":152.2903,"MEAN_ANOMALY":207.8729,"EPHEMERIS_TYPE":0,"CLASSIFICATION_TYPE":"U","NORAD_CAT_ID":68319,"ELEMENT_SET_NO":999,"REV_AT_EPOCH":6,"BSTAR":0.00035870065,"MEAN_MOTION_DOT":0.00200487,"MEAN_MOTION_DDOT":2.8255529e-5},{"OBJECT_NAME":"SL-4 R/B","OBJECT_ID":"2026-058B","EPOCH":"2026-03-24T03:27:49.129632","MEAN_MOTION":16.45417185,"ECCENTRICITY":0.0007315,"INCLINATION":51.6482,"RA_OF_ASC_NODE":0.7405,"ARG_OF_PERICENTER":84.8434,"MEAN_ANOMALY":275.343,"EPHEMERIS_TYPE":0,"CLASSIFICATION_TYPE":"U","NORAD_CAT_ID":68320,"ELEMENT_SET_NO":999,"REV_AT_EPOCH":27,"BSTAR":0.00027517424,"MEAN_MOTION_DOT":0.10751138,"MEAN_MOTION_DDOT":1.2560806e-5}]
