STARLINK-37093          
1 68194U 26050AD  26083.16668981 -.01607676  00000+0 -87033-2 0  9992
2 68194  53.1606 209.0864 0000965  65.0949  35.0581 15.82337452  2760
STARLINK-37058          
1 68195U 26050AE  26083.16668981 -.01602607  00000+0 -83801-2 0  9991
2 68195  53.1602 209.0537 0000805  74.9136  41.0482 15.83058395  2768
YAOGAN-50 02            
1 68196U 26051A   26082.15425738  .00000263  00000+0  60453-4 0  9999
2 68196 142.0896 272.3766 0072646 159.3966 200.9696 13.86715862  1076
CZ-6A R/B               
1 68197U 26051B   26082.77170098  .00001182  00000+0  15478-3 0  9991
2 68197 142.0320 278.9006 0186066 151.7732 209.3218 14.56364371  1219
2026-052A               
1 68198U 26052A   26083.30315001  .00006754  00000+0  41984-3 0  9999
2 68198  97.5363 159.4237 0012747 235.3879 124.6149 15.09907705  1232
YUXING-3 06             
1 68199U 26052B   26083.23606656  .00005172  00000+0  32138-3 0  9995
2 68199  97.5367 159.3590 0011825 236.7086 123.3011 15.10037985  1228
2026-052C               
1 68200U 26052C   26083.30161316  .00004613  00000+0  28613-3 0  9997
2 68200  97.5360 159.4256 0011557 239.2112 120.7980 15.10168552  1225
2026-052D               
1 68201U 26052D   26082.17448606  .00016184  00000+0  98770-3 0  9999
2 68201  97.5345 158.3130 0010623 243.8917 116.1220 15.10349642  1064
2026-052E               
1 68202U 26052E   26082.10822248  .00007223  00000+0  44377-3 0  9999
2 68202  97.5365 158.2509 0010542 240.2924 119.7257 15.10329913  1052
2026-052F               
1 68203U 26052F   26083.29940961  .00007341  00000+0  44759-3 0  9999
2 68203  97.5362 159.4308 0009858 231.7843 128.2500 15.10606323  1232
2026-052G               
1 68204U 26052G   26083.29914487  .00007456  00000+0  45397-3 0  9990
2 68204  97.5369 159.4268 0009463 234.8824 125.1520 15.10653851  1236
KZ-11 R/B               
1 68205U 26052H   26083.26694228  .00030529  18827-5  45493-3 0  9992
2 68205  97.3413 159.0463 0547583 346.8031  11.9317 14.66965354  1197
2026-052J               
1 68206U 26052J   26083.26568380  .00053700  21863-5  78749-3 0  9992
2 68206  97.3417 159.0474 0545936 346.8721  11.8738 14.67477184  1196
TEN-KOH 2               
1 68261U 25241B   26083.12493482  .00009112  00000+0  39972-3 0  9994
2 68261  51.6367   4.2272 0004436 206.4734 153.6017 15.22653261  1943
PROGRESS-MS 33          
1 68319U 26058A   26082.05109224  .00200487  28256-4  35870-3 0  9993
2 68319  51.6358   6.8873 0011621 152.2903 207.8729 16.01170532    69
SL-4 R/B                
1 68320U 26058B   26083.14431863  .10751138  12561-4  27517-3 0  9999
2 68320  51.6482   0.7405 0007315  84.8434 275.3430 16.45417185   275
